HST                     
1 20580U 90037B   26157.32027908  .00006872  00000+0  21780-3 0  9999
2 20580  28.4714 154.8380 0001885  34.6923 325.3796 15.30632786786907
POLAR                   
1 23802U 96013A   26157.25380788  .00000121  00000+0  00000+0 0  9998
2 23802  79.8415 227.1806 6459687 209.4581  89.1646  1.29846142144719
SWAS                    
1 25560U 98071A   26157.61260087  .00005013  00000+0  31771-3 0  9994
2 25560  69.8962 254.7875 0008899 269.5615  90.4529 15.09555736495672
CXO                     
1 25867U 99040B   26158.79821798  .00000708  00000+0  00000+0 0  9996
2 25867  55.9928 116.9568 7854200 310.2595   0.2905  0.37800379 17286
XMM-NEWTON              
1 25989U 99066A   26157.37875651  .00000096  00000+0  00000+0 0  9999
2 25989  64.5482 283.1267 4678331  65.0797   0.1118  0.50125302 22956
TERRA                   
1 25994U 99068A   26157.89211196  .00000405  00000+0  91438-4 0  9996
2 25994  97.9460 207.8461 0000877 242.1878 231.5569 14.61094933408102
CLUSTER II-FM7 (SAMBA)  
1 26410U 00041A   26159.21452506  .00004289  00000+0  00000+0 0  9997
2 26410 149.9021  49.0985 9044305 266.1693 359.9197  0.44821039 20279
CLUSTER II-FM8 (TANGO)  
1 26464U 00045B   26157.18212103  .00004544  00000+0  00000+0 0  9995
2 26464 150.1407  49.6985 9046202 266.6195   3.2041  0.44406384 20264
ODIN                    
1 26702U 01007A   26157.60506387  .00168608  00000+0  12480-2 0  9996
2 26702  97.3858 197.8935 0006155 156.3152 203.8396 15.72403911387733
TIMED                   
1 26998U 01055B   26157.57093221  .00001591  00000+0  14804-3 0  9990
2 26998  74.0681 256.3932 0000511 354.4098   5.7081 14.95270608329234
CORIOLIS                
1 27640U 03001A   26157.76834463  .00000115  00000+0  74669-4 0  9997
2 27640  98.7127 164.8123 0012914 240.8176 119.1709 14.19941982212747
SORCE                   
1 27651U 03004A   26157.84520247  .00003312  00000+0  24774-3 0  9996
2 27651  39.9919 320.6810 0018005 333.7647  26.2234 15.03657222270348
MOST                    
1 27843U 03031D   26157.72216448  .00000077  00000+0  55559-4 0  9992
2 27843  98.7045 165.5941 0008712 284.6266  75.3945 14.21320370189220
SCISAT 1                
1 27858U 03036A   26157.82603692  .00000574  00000+0  77921-4 0  9994
2 27858  73.9288 191.9290 0008711 260.6324  99.3867 14.81437394229919
SWIFT                   
1 28485U 04047A   26157.62516102  .00061964  00000+0  53892-3 0  9991
2 28485  20.5528 266.3162 0002758 138.0120 222.0537 15.67271412185207
HINODE (SOLAR-B)        
1 29479U 06041A   26157.76115669  .00000851  00000+0  15472-3 0  9999
2 29479  98.0549 174.0673 0016522 325.4032  34.6097 14.68608687 53349
SHIJIAN-6 02A (SJ-6 02A)
1 29505U 06046A   26157.86678381  .00006321  00000+0  32499-3 0  9996
2 29505  97.6360 198.8569 0003572 148.9077 211.2368 15.16817508 70702
SHIJIAN-6 02B (SJ-6 02B)
1 29506U 06046B   26157.88266037  .00001330  00000+0  10775-3 0  9998
2 29506  97.7159 187.0049 0014584  90.4269 269.8627 15.01349456 69196
FGRST (GLAST)           
1 33053U 08029A   26157.03162891  .00004358  00000+0  16171-3 0  9992
2 33053  25.5829 281.9389 0008065 191.7591 168.2760 15.23890133994130
SDO                     
1 36395U 10005A   26157.34396931 -.00000062  00000+0  00000+0 0  9998
2 36395  34.6287  86.5080 0001398  50.1694 139.9279  1.00271136 59950
CRYOSAT 2               
1 36508U 10013A   26157.88130881  .00000140  00000+0  33941-4 0  9993
2 36508  92.0347 274.7971 0002248  85.7263 274.4201 14.51896221856584
X-SAT                   
1 37389U 11015C   26157.83512700  .00000320  00000+0  15362-3 0  9999
2 37389  98.3512 135.3524 0014606  18.4347 341.7360 14.25203787786203
GCOM-W1 (SHIZUKU)       
1 38337U 12025A   26157.61636294  .00000540  00000+0  12993-3 0  9997
2 38337  98.2020  98.3323 0001876  83.5815  89.1960 14.57114775747493
NUSTAR                  
1 38358U 12031A   26157.91670139  .00004464  00000+0  22312-3 0  9991
2 38358   6.0251 111.1675 0008784 311.4699   0.1153 15.08701192  1303
NEOSSAT                 
1 39089U 13009D   26157.75652698  .00000146  00000+0  65278-4 0  9993
2 39089  98.4176 338.0375 0009791 278.6853  81.3223 14.35822774695248
BRITE-AUSTRIA           
1 39091U 13009F   26157.76034058  .00000191  00000+0  79724-4 0  9992
2 39091  98.3993 337.4545 0008955 271.7200  88.2961 14.36537975695556
IRIS                    
1 39197U 13033A   26157.52493765  .00001221  00000+0  14590-3 0  9998
2 39197  97.9337 356.8355 0024380 357.4012   2.7073 14.85864057698799
HISAKI (SPRINT-A)       
1 39253U 13049A   26157.59666142  .00000136  00000+0  94357-4 0  9990
2 39253  29.7210 273.8556 0136916 291.0311  67.5666 13.55543546629985
CASSIOPE                
1 39265U 13055A   26157.72753830  .00048289 -46050-6  53350-3 0  9997
2 39265  80.9143  79.4125 0296306  97.5089 265.9907 15.24250739666075
STSAT-3                 
1 39422U 13066G   26157.85833420  .00004618  00000+0  35004-3 0  9993
2 39422  97.6216 127.9137 0010883  72.4704 287.7710 15.02694809682650
SWARM B                 
1 39451U 13067A   26157.78984808  .00004141  00000+0  14823-3 0  9992
2 39451  87.7443 345.4764 0003404  91.4052 268.7587 15.28488317681658
